$$SOE
2459580.500000000, A.D. 2022-Jan-01 00:00:00.0000, -3.801782967036237E+08, -3.653395241480967E+08, -2.497665420763344E+06,
2459587.500000000, A.D. 2022-Jan-08 00:00:00.0000, -3.729396549891553E+08, -3.723571457169471E+08, -2.176956888135105E+06,
2459594.500000000, A.D. 2022-Jan-15 00:00:00.0000, -3.655773673862176E+08, -3.792512604925541E+08, -1.855525407143384E+06,
2459601.500000000, A.D. 2022-Jan-22 00:00:00.0000, -3.580937030185121E+08, -3.860194084116083E+08, -1.533477119054139E+06,
2459608.500000000, A.D. 2022-Jan-29 00:00:00.0000, -3.504909897302958E+08, -3.926591755665292E+08, -1.210918611449331E+06,
2459615.500000000, A.D. 2022-Feb-05 00:00:00.0000, -3.427716150347580E+08, -3.991681966693851E+08, -8.879567034977674E+05,
2459622.500000000, A.D. 2022-Feb-12 00:00:00.0000, -3.349380248208445E+08, -4.055441585441449E+08, -5.646985154462457E+05,
2459629.500000000, A.D. 2022-Feb-19 00:00:00.0000, -3.269927211455658E+08, -4.117848022753032E+08, -2.412515073705912E+05,
2459636.500000000, A.D. 2022-Feb-26 00:00:00.0000, -3.189382604249934E+08, -4.178879247324795E+08, 8.227657377675176E+04,
2459643.500000000, A.D. 2022-Mar-05 00:00:00.0000, -3.107772518664248E+08, -4.238513800847003E+08, 4.057777734456360E+05,
2459650.500000000, A.D. 2022-Mar-12 00:00:00.0000, -3.025123559219272E+08, -4.296730813672350E+08, 7.291440089528263E+05,
2459657.500000000, A.D. 2022-Mar-19 00:00:00.0000, -2.941462826946674E+08, -4.353510020701770E+08, 1.052267144491643E+06,
2459664.500000000, A.D. 2022-Mar-26 00:00:00.0000, -2.856817902783493E+08, -4.408831777516772E+08, 1.375039058786094E+06,
2459671.500000000, A.D. 2022-Apr-02 00:00:00.0000, -2.771216829645512E+08, -4.462677077282988E+08, 1.697351694291562E+06,
2459678.500000000, A.D. 2022-Apr-09 00:00:00.0000, -2.684688090481665E+08, -4.515027568343292E+08, 2.019097063079983E+06,
2459685.500000000, A.D. 2022-Apr-16 00:00:00.0000, -2.597260578759093E+08, -4.565865565931333E+08, 2.340167229792982E+06,
2459692.500000000, A.D. 2022-Apr-23 00:00:00.0000, -2.508963574089651E+08, -4.615174047139986E+08, 2.660454476351619E+06,
2459699.500000000, A.D. 2022-Apr-30 00:00:00.0000, -2.419826741723790E+08, -4.662936651580522E+08, 2.979851636163622E+06,
2459706.500000000, A.D. 2022-May-07 00:00:00.0000, -2.329880125317060E+08, -4.709137707461736E+08, 3.298252155345440E+06,
2459713.500000000, A.D. 2022-May-14 00:00:00.0000, -2.239154119118467E+08, -4.753762252701561E+08, 3.615550001681209E+06,
2459720.500000000, A.D. 2022-May-21 00:00:00.0000, -2.147679439934672E+08, -4.796796043467944E+08, 3.931639669607878E+06,
2459727.500000000, A.D. 2022-May-28 00:00:00.0000, -2.055487103694936E+08, -4.838225559714344E+08, 4.246416246762335E+06,
2459734.500000000, A.D. 2022-Jun-04 00:00:00.0000, -1.962608403877066E+08, -4.878038010816570E+08, 4.559775491033047E+06,
2459741.500000000, A.D. 2022-Jun-11 00:00:00.0000, -1.869074890375789E+08, -4.916221341272600E+08, 4.871613904925346E+06,
2459748.500000000, A.D. 2022-Jun-18 00:00:00.0000, -1.774918348455096E+08, -4.952764236322712E+08, 5.181828804689735E+06,
2459755.500000000, A.D. 2022-Jun-25 00:00:00.0000, -1.680170777521536E+08, -4.987656127817372E+08, 5.490318378776133E+06,
2459762.500000000, A.D. 2022-Jul-02 00:00:00.0000, -1.584864368412614E+08, -5.020887200988833E+08, 5.796981717973530E+06,
2459769.500000000, A.D. 2022-Jul-09 00:00:00.0000, -1.489031475334227E+08, -5.052448400356734E+08, 6.101718795971811E+06,
2459776.500000000, A.D. 2022-Jul-16 00:00:00.0000, -1.392704583036913E+08, -5.082331423939617E+08, 6.404430493993372E+06,
2459783.500000000, A.D. 2022-Jul-23 00:00:00.0000, -1.295916291251327E+08, -5.110528704992279E+08, 6.705018877593935E+06,
2459790.500000000, A.D. 2022-Jul-30 00:00:00.0000, -1.198699315573683E+08, -5.137033414806797E+08, 7.003387443894386E+06,
2459797.500000000, A.D. 2022-Aug-06 00:00:00.0000, -1.101086468845372E+08, -5.161839480105615E+08, 7.299441062217593E+06,
2459804.500000000, A.D. 2022-Aug-13 00:00:00.0000, -1.003110631295400E+08, -5.184941587495494E+08, 7.593085908955812E+06,
2459811.500000000, A.D. 2022-Aug-20 00:00:00.0000, -9.048047251757383E+07, -5.206335180024933E+08, 7.884229499708414E+06,
2459818.500000000, A.D. 2022-Aug-27 00:00:00.0000, -8.062016932420574E+07, -5.226016453117671E+08, 8.172780753246009E+06,
2459825.500000000, A.D. 2022-Sep-03 00:00:00.0000, -7.073344786319339E+07, -5.243982350995611E+08, 8.458650055630535E+06,
2459832.500000000, A.D. 2022-Sep-10 00:00:00.0000, -6.082360052683455E+07, -5.260230563362358E+08, 8.741749318212330E+06,
2459839.500000000, A.D. 2022-Sep-17 00:00:00.0000, -5.089391585212276E+07, -5.274759522379180E+08, 9.021992026626438E+06,
2459846.500000000, A.D. 2022-Sep-24 00:00:00.0000, -4.094767655495291E+07, -5.287568400460919E+08, 9.299293271010876E+06,
2459853.500000000, A.D. 2022-Oct-01 00:00:00.0000, -3.098815729514539E+07, -5.298657109136196E+08, 9.573569733496189E+06,
2459860.500000000, A.D. 2022-Oct-08 00:00:00.0000, -2.101862176778219E+07, -5.308026293773331E+08, 9.844739638107449E+06,
2459867.500000000, A.D. 2022-Oct-15 00:00:00.0000, -1.104232005546668E+07, -5.315677312200598E+08, 1.011272284632272E+07,
2459874.500000000, A.D. 2022-Oct-22 00:00:00.0000, -1.062488425554232E+06, -5.321612214075415E+08, 1.037744116046613E+07,
2459881.500000000, A.D. 2022-Oct-29 00:00:00.0000, 8.917650923644744E+06, -5.325833746955831E+08, 1.063881839350328E+07,
2459888.500000000, A.D. 2022-Nov-05 00:00:00.0000, 1.889489226523538E+07, -5.328345361692550E+08, 1.089678023641643E+07,
2459895.500000000, A.D. 2022-Nov-12 00:00:00.0000, 2.886604892765158E+07, -5.329151204500687E+08, 1.115125420678803E+07,
2459902.500000000, A.D. 2022-Nov-19 00:00:00.0000, 3.882795533841624E+07, -5.328256105278816E+08, 1.140216966648635E+07,
2459909.500000000, A.D. 2022-Nov-26 00:00:00.0000, 4.877746878770924E+07, -5.325665566170970E+08, 1.164945785182405E+07,
2459916.500000000, A.D. 2022-Dec-03 00:00:00.0000, 5.871147107569318E+07, -5.321385750505021E+08, 1.189305189991435E+07,
2459923.500000000, A.D. 2022-Dec-10 00:00:00.0000, 6.862687008751710E+07, -5.315423471935263E+08, 1.213288686845335E+07,
2459930.500000000, A.D. 2022-Dec-17 00:00:00.0000, 7.852060131983554E+07, -5.307786184054974E+08, 1.236889974449795E+07,
2459937.500000000, A.D. 2022-Dec-24 00:00:00.0000, 8.838962946794882E+07, -5.298481971160370E+08, 1.260102942677674E+07,
2459944.500000000, A.D. 2022-Dec-31 00:00:00.0000, 9.823095043104504E+07, -5.287519539123280E+08, 1.282921665758586E+07,
2459951.500000000, A.D. 2023-Jan-07 00:00:00.0000, 1.080415938577350E+08, -5.274908196787120E+08, 1.305340397183409E+07,
2459958.500000000, A.D. 2023-Jan-14 00:00:00.0000, 1.178186242638160E+08, -5.260657822953457E+08, 1.327353588445416E+07,
2459965.500000000, A.D. 2023-Jan-21 00:00:00.0000, 1.275591400764505E+08, -5.244778850711021E+08, 1.348955911615232E+07,
2459972.500000000, A.D. 2023-Jan-28 00:00:00.0000, 1.372602742723197E+08, -5.227282271086431E+08, 1.370142250515825E+07,
2459979.500000000, A.D. 2023-Feb-04 00:00:00.0000, 1.469191964009692E+08, -5.208179625769238E+08, 1.390907687170196E+07,
2459986.500000000, A.D. 2023-Feb-11 00:00:00.0000, 1.565331141977699E+08, -5.187482990875008E+08, 1.411247498426741E+07,
2459993.500000000, A.D. 2023-Feb-18 00:00:00.0000, 1.660992747230384E+08, -5.165204960001339E+08, 1.431157156633058E+07,
2460000.500000000, A.D. 2023-Feb-25 00:00:00.0000, 1.756149652901527E+08, -5.141358628215919E+08, 1.450632330643687E+07,
2460007.500000000, A.D. 2023-Mar-04 00:00:00.0000, 1.850775142850670E+08, -5.115957576808513E+08, 1.469668886396730E+07,
2460014.500000000, A.D. 2023-Mar-11 00:00:00.0000, 1.944842919062503E+08, -5.089015858820268E+08, 1.488262886820093E+07,
2460021.500000000, A.D. 2023-Mar-18 00:00:00.0000, 2.038327108728019E+08, -5.060547985863031E+08, 1.506410590252161E+07,
2460028.500000000, A.D. 2023-Mar-25 00:00:00.0000, 2.131202273050376E+08, -5.030568916720567E+08, 1.524108445152444E+07,
2460035.500000000, A.D. 2023-Apr-01 00:00:00.0000, 2.223443422031418E+08, -4.999094043821129E+08, 1.541353080456057E+07,
2460042.500000000, A.D. 2023-Apr-08 00:00:00.0000, 2.315026029093220E+08, -4.966139165356809E+08, 1.558141307261759E+07,
2460049.500000000, A.D. 2023-Apr-15 00:00:00.0000, 2.405926022168876E+08, -4.931720454131266E+08, 1.574470144273514E+07,
2460056.500000000, A.D. 2023-Apr-22 00:00:00.0000, 2.496119769360392E+08, -4.895854453667069E+08, 1.590336825467333E+07,
2460063.500000000, A.D. 2023-Apr-29 00:00:00.0000, 2.585584086527236E+08, -4.858558079058822E+08, 1.605738783311960E+07,
2460070.500000000, A.D. 2023-May-06 00:00:00.0000, 2.674296249217359E+08, -4.819848604781950E+08, 1.620673638252386E+07,
2460077.500000000, A.D. 2023-May-13 00:00:00.0000, 2.762233999184420E+08, -4.779743648412579E+08, 1.635139196113738E+07,
2460084.500000000, A.D. 2023-May-20 00:00:00.0000, 2.849375547843799E+08, -4.738261155186799E+08, 1.649133447254932E+07,
2460091.500000000, A.D. 2023-May-27 00:00:00.0000, 2.935699578613753E+08, -4.695419383709714E+08, 1.662654565440360E+07,
2460098.500000000, A.D. 2023-Jun-03 00:00:00.0000, 3.021185248729059E+08, -4.651236892569464E+08, 1.675700906092700E+07,
2460105.500000000, A.D. 2023-Jun-10 00:00:00.0000, 3.105812190776594E+08, -4.605732528006818E+08, 1.688271003571001E+07,
2460112.500000000, A.D. 2023-Jun-17 00:00:00.0000, 3.189560514856477E+08, -4.558925413252625E+08, 1.700363566140679E+07,
2460119.500000000, A.D. 2023-Jun-24 00:00:00.0000, 3.272410814585167E+08, -4.510834938988793E+08, 1.711977466135657E+07,
2460126.500000000, A.D. 2023-Jul-01 00:00:00.0000, 3.354344179490302E+08, -4.461480746667891E+08, 1.723111729751033E+07,
2460133.500000000, A.D. 2023-Jul-08 00:00:00.0000, 3.435342197072488E+08, -4.410882696489862E+08, 1.733765548538622E+07,
2460140.500000000, A.D. 2023-Jul-15 00:00:00.0000, 3.515386931774376E+08, -4.359060848346747E+08, 1.743938301184025E+07,
2460147.500000000, A.D. 2023-Jul-22 00:00:00.0000, 3.594460916078378E+08, -4.306035466083598E+08, 1.753629544799289E+07,
$$EOE